OBJECT_NAME,OBJECT_ID,EPOCH,MEAN_MOTION,ECCENTRICITY,INCLINATION,RA_OF_ASC_NODE,ARG_OF_PERICENTER,MEAN_ANOMALY,EPHEMERIS_TYPE,CLASSIFICATION_TYPE,NORAD_CAT_ID,ELEMENT_SET_NO,REV_AT_EPOCH,BSTAR,MEAN_MOTION_DOT,MEAN_MOTION_DDOT
SUOMI NPP,2011-061A,2026-06-03T21:03:52.661376,14.19514463,.00022257,98.7951,95.8450,35.2885,324.8438,0,U,37849,999,75655,.65983125E-4,.95E-6,0
YAOGAN-12,2011-066B,2026-06-03T23:00:51.331680,15.26424813,.00079648,97.1149,194.1491,273.3349,86.6980,0,U,37875,999,81002,.27151922E-3,.7009E-4,0
BEIDOU-2 M4,2012-018B,2026-06-01T00:17:34.485216,1.86229761,.00110626,55.6723,304.6348,278.2217,81.6260,0,U,38251,999,9564,0,-.79E-6,0
ARIRANG-3 (KOMPSAT-3),2012-025B,2026-06-03T21:27:20.043936,14.62193785,.00060238,98.1170,112.5840,143.9797,216.1812,0,U,38338,999,74940,.10767488E-3,.496E-5,0
METOP-B,2012-049A,2026-06-03T21:15:20.057184,14.21428927,.00029588,98.6510,206.6496,49.6336,310.5099,0,U,38771,999,71137,.76238368E-4,.123E-5,0
SJ-9A,2012-056A,2026-06-03T19:50:59.775936,14.85445672,.00242344,97.6701,127.2629,303.5592,56.3310,0,U,38860,999,69760,.14744689E-3,.1225E-4,0
COSMOS 2484 (RODNIK-S 6),2013-001C,2026-06-03T22:40:59.295936,12.42938739,.00273018,82.5027,230.1245,64.7482,295.6423,0,U,39059,999,60691,.48731168E-3,.78E-6,0
SARAL,2013-009A,2026-06-03T21:54:19.837440,14.32852600,.00014748,98.5557,341.6483,5.4692,354.6508,0,U,39086,999,69370,.44877474E-4,.79E-6,0
STRAND-1,2013-009E,2026-06-03T11:30:48.330720,14.37154783,.00073887,98.3917,335.0519,272.5775,87.4566,0,U,39090,999,69509,.12129717E-3,.318E-5,0
BRITE-AUSTRIA,2013-009F,2026-06-03T11:40:50.399616,14.36536402,.00089763,98.3992,334.2621,282.7802,77.2381,0,U,39091,999,69508,.84365938E-4,.205E-5,0
GAOFEN-1,2013-018A,2026-06-03T21:59:12.715296,14.76521668,.00161282,97.9097,227.2533,312.7985,47.1868,0,U,39150,999,70628,.32006406E-4,.172E-5,0
NEE-01 PEGASO,2013-018B,2026-06-03T11:09:53.669664,14.93586684,.00121772,98.1207,298.1637,203.9081,156.1574,0,U,39151,999,70865,.30779545E-3,.319E-4,0
PROBA-V,2013-021A,2026-06-03T13:18:01.331712,14.23593894,.00044864,98.3577,133.8344,157.0674,203.0707,0,U,39159,999,67917,.50464514E-4,.74E-6,0
ARIRANG-5 (KOMPSAT-5),2013-042A,2026-06-03T22:20:27.826368,15.04540775,.00036951,97.6196,341.8171,159.4300,200.7075,0,U,39227,999,70186,.19985957E-3,.274E-4,0
GONETS-M 5,2013-048A,2026-06-03T21:55:20.489376,12.42891458,.00156775,82.4828,351.6596,241.0953,118.8555,0,U,39249,999,57723,.19311166E-4,.12E-6,0
GONETS-M 7,2013-048C,2026-06-03T22:58:15.777120,12.42914402,.00164726,82.4897,354.5478,242.3701,117.5707,0,U,39251,999,57719,.6721442E-4,.19E-6,0
FENGYUN 3C,2013-052A,2026-06-03T21:33:52.816608,14.15751834,.00157865,98.4980,129.3841,63.6427,296.6366,0,U,39260,999,65668,.79027481E-4,.114E-5,0
CASSIOPE,2013-055A,2026-06-03T20:07:54.892992,15.23994824,.02970708,80.9148,82.9142,107.1768,256.2216,0,U,39265,999,66563,.44548356E-3,.40163E-3,-.598045E-6
APRIZESAT 7,2013-066A,2026-06-03T11:14:31.928640,14.91532678,.00342772,97.7702,107.8862,256.3956,103.3444,0,U,39416,999,67918,.14142157E-3,.1374E-4,0
ZACUBE-1 (TSHEPISOSAT),2013-066B,2026-06-03T11:25:20.204256,15.01091454,.00398881,97.8107,116.7386,296.2367,63.4759,0,U,39417,999,67867,.35711026E-3,.4583E-4,0
APRIZESAT 8,2013-066K,2026-06-02T19:33:10.458432,14.87621023,.0045322,97.8214,101.4839,335.0399,24.8626,0,U,39425,999,67753,.149731E-3,.1329E-4,0
