SUOMI NPP               
1 37849U 11061A   26154.87769284  .00000095  00000+0  65983-4 0  9997
2 37849  98.7951  95.8450 0002225  35.2885 324.8438 14.19514463756553
YAOGAN-12               
1 37875U 11066B   26154.95892745  .00007009  00000+0  27152-3 0  9996
2 37875  97.1149 194.1491 0007964 273.3349  86.6980 15.26424813810023
BEIDOU-2 M4             
1 38251U 12018B   26152.01220469 -.00000079  00000+0  00000+0 0  9996
2 38251  55.6723 304.6348 0011062 278.2217  81.6260  1.86229761 95645
ARIRANG-3 (KOMPSAT-3)   
1 38338U 12025B   26154.89398199  .00000496  00000+0  10767-3 0  9991
2 38338  98.1170 112.5840 0006023 143.9797 216.1812 14.62193785749406
METOP-B                 
1 38771U 12049A   26154.88564881  .00000123  00000+0  76238-4 0  9993
2 38771  98.6510 206.6496 0002958  49.6336 310.5099 14.21428927711371
SJ-9A                   
1 38860U 12056A   26154.82708074  .00001225  00000+0  14745-3 0  9996
2 38860  97.6701 127.2629 0024234 303.5592  56.3310 14.85445672697600
COSMOS 2484 (RODNIK-S 6)
1 39059U 13001C   26154.94513074  .00000078  00000+0  48731-3 0  9992
2 39059  82.5027 230.1245 0027301  64.7482 295.6423 12.42938739606914
SARAL                   
1 39086U 13009A   26154.91272960  .00000079  00000+0  44877-4 0  9992
2 39086  98.5557 341.6483 0001474   5.4692 354.6508 14.32852600693705
STRAND-1                
1 39090U 13009E   26154.47972605  .00000318  00000+0  12130-3 0  9993
2 39090  98.3917 335.0519 0007388 272.5775  87.4566 14.37154783695095
BRITE-AUSTRIA           
1 39091U 13009F   26154.48669444  .00000205  00000+0  84366-4 0  9995
2 39091  98.3992 334.2621 0008976 282.7802  77.2381 14.36536402695084
GAOFEN-1                
1 39150U 13018A   26154.91611939  .00000172  00000+0  32006-4 0  9992
2 39150  97.9097 227.2533 0016128 312.7985  47.1868 14.76521668706281
NEE-01 PEGASO           
1 39151U 13018B   26154.46520451  .00003190  00000+0  30780-3 0  9990
2 39151  98.1207 298.1637 0012177 203.9081 156.1574 14.93586684708654
PROBA-V                 
1 39159U 13021A   26154.55418208  .00000074  00000+0  50465-4 0  9999
2 39159  98.3577 133.8344 0004486 157.0674 203.0707 14.23593894679173
ARIRANG-5 (KOMPSAT-5)   
1 39227U 13042A   26154.93087762  .00002740  00000+0  19986-3 0  9991
2 39227  97.6196 341.8171 0003695 159.4300 200.7075 15.04540775701864
GONETS-M 5              
1 39249U 13048A   26154.91343159  .00000012  00000+0  19311-4 0  9997
2 39249  82.4828 351.6596 0015677 241.0953 118.8555 12.42891458577237
GONETS-M 7              
1 39251U 13048C   26154.95712705  .00000019  00000+0  67214-4 0  9993
2 39251  82.4897 354.5478 0016472 242.3701 117.5707 12.42914402577191
FENGYUN 3C              
1 39260U 13052A   26154.89852797  .00000114  00000+0  79027-4 0  9998
2 39260  98.4980 129.3841 0015786  63.6427 296.6366 14.15751834656681
CASSIOPE                
1 39265U 13055A   26154.83882978  .00040163 -59804-6  44548-3 0  9995
2 39265  80.9148  82.9142 0297070 107.1768 256.2216 15.23994824665635
APRIZESAT 7             
1 39416U 13066A   26154.46842510  .00001374  00000+0  14142-3 0  9996
2 39416  97.7702 107.8862 0034277 256.3956 103.3444 14.91532678679184
ZACUBE-1 (TSHEPISOSAT)  
1 39417U 13066B   26154.47592829  .00004583  00000+0  35711-3 0  9993
2 39417  97.8107 116.7386 0039888 296.2367  63.4759 15.01091454678679
APRIZESAT 8             
1 39425U 13066K   26153.81470438  .00001329  00000+0  14973-3 0  9992
2 39425  97.8214 101.4839 0045322 335.0399  24.8626 14.87621023677530
